1 45172U 13076AD  22365.28919732  .00001909  00000-0  10589-1 0  9998
2 45172  82.4702 213.6119 0107514 168.4105 191.9498 12.60831198134503
1 45172U 13076AD  22365.84466851  .00001988  00000-0  11029-1 0  9996
2 45172  82.4703 213.2534 0107379 166.9871 193.4029 12.60833534134573
1 45172U 13076AD  22365.92402162  .00001907  00000-0  10579-1 0  9990
2 45172  82.4705 213.2021 0107359 166.7946 193.5994 12.60833492134581
1 45172U 13076AD  23001.87625455  .00002073  00000-0  11500-1 0  9994
2 45172  82.4702 212.5870 0107154 164.3617 196.0826 12.60838138134702
1 45172U 13076AD  23001.87625455  .00002073  00000-0  11500-1 0  9994
2 45172  82.4702 212.5870 0107154 164.3617 196.0826 12.60838138134702
1 45172U 13076AD  23002.35236985  .00002088  00000-0  11584-1 0  9992
2 45172  82.4702 212.2797 0107055 163.1469 197.3223 12.60840276134766
1 45172U 13076AD  23002.82848466  .00001864  00000-0  10339-1 0  9995
2 45172  82.4702 211.9723 0106960 161.9437 198.5498 12.60841609134821
1 45172U 13076AD  23003.30459865  .00001958  00000-0  10860-1 0  9993
2 45172  82.4700 211.6650 0106856 160.7318 199.7861 12.60843658134883
1 45172U 13076AD  23003.86006402  .00001682  00000-0  93215-2 0  9999
2 45172  82.4700 211.3064 0106766 159.3505 201.1949 12.60845162134956
1 45172U 13076AD  23005.28839778  .00002106  00000-0  11688-1 0  9992
2 45172  82.4697 210.3845 0106505 155.7768 204.8383 12.60852087135136
1 45172U 13076AD  23005.28839778  .00002106  00000-0  11688-1 0  9992
2 45172  82.4697 210.3845 0106505 155.7768 204.8383 12.60852087135136
1 45172U 13076AD  23007.27218140  .00002196  00000-0  12188-1 0  9992
2 45172  82.4695 209.1038 0106211 150.8853 209.8216 12.60861345135383
1 45172U 13076AD  23009.25595022  .00002275  00000-0  12631-1 0  9990
2 45172  82.4697 207.8232 0105876 146.0351 214.7578 12.60870162135633
1 45172U 13076AD  23009.25595022  .00002275  00000-0  12631-1 0  9990
2 45172  82.4697 207.8232 0105876 146.0351 214.7578 12.60870162135633
1 45172U 13076AD  23010.76360467  .00002132  00000-0  11833-1 0  9996
2 45172  82.4700 206.8498 0105613 142.3871 218.4666 12.60876359135820
1 45172U 13076AD  23012.82669509  .00002261  00000-0  12553-1 0  9997
2 45172  82.4706 205.5178 0105216 137.4502 223.4802 12.60886381136085
1 45172U 13076AD  23012.82669509  .00002261  00000-0  12553-1 0  9997
2 45172  82.4706 205.5178 0105216 137.4502 223.4802 12.60886381136085
1 45172U 13076AD  23013.22344086  .00002638  00000-0  14655-1 0  9995
2 45172  82.4706 205.2616 0105134 136.4970 224.4474 12.60889384136134
1 45172U 13076AD  23014.81041730  .00002721  00000-0  15117-1 0  9998
2 45172  82.4711 204.2370 0104797 132.7446 228.2522 12.60897907136335
1 45172U 13076AD  23014.81041730  .00002721  00000-0  15117-1 0  9998
2 45172  82.4711 204.2370 0104797 132.7446 228.2522 12.60897907136335
1 45172U 13076AD  23016.23868505  .00003242  00000-0  18021-1 0  9999
2 45172  82.4711 203.3150 0104433 129.3865 231.6532 12.60907269136517
1 45172U 13076AD  23016.79411952  .00003138  00000-0  17440-1 0  9998
2 45172  82.4712 202.9564 0104299 128.0912 232.9641 12.60910453136582
1 45172U 13076AD  23018.22237321  .00002960  00000-0  16450-1 0  9996
2 45172  82.4710 202.0345 0103872 124.7586 236.3336 12.60918200136761
1 45172U 13076AD  23018.22237321  .00002960  00000-0  16450-1 0  9996
2 45172  82.4710 202.0345 0103872 124.7586 236.3336 12.60918200136761
1 45172U 13076AD  23019.25388300  .00003021  00000-0  16790-1 0  9990
2 45172  82.4712 201.3687 0103520 122.3559 238.7603 12.60924353136891
1 45172U 13076AD  23020.20604175  .00002876  00000-0  15981-1 0  9996
2 45172  82.4710 200.7539 0103142 120.1421 240.9938 12.60929179137014
1 45172U 13076AD  23020.76146485  .00003163  00000-0  17582-1 0  9991
2 45172  82.4709 200.3953 0102947 118.8673 242.2795 12.60933304137081
1 45172U 13076AD  23023.22118098  .00002577  00000-0  14318-1 0  9996
2 45172  82.4713 198.8075 0101906 113.1931 247.9932 12.60945047137397
1 45172U 13076AD  23024.72873426  .00002790  00000-0  15508-1 0  9994
2 45172  82.4719 197.8344 0101184 109.7130 251.4909 12.60953785137584
1 45172U 13076AD  23028.77527778  .00002174  00000-0  12084-1 0  9991
2 45172  82.4726 195.2221 0098754 100.3044 260.9197 12.60971444138090
1 45172U 13076AD  23028.77527778  .00002174  00000-0  12084-1 0  9991
2 45172  82.4726 195.2221 0098754 100.3044 260.9197 12.60971444138090
1 45172U 13076AD  23029.17199433  .00002065  00000-0  11474-1 0  9990
2 45172  82.4726 194.9658 0098573  99.3901 261.8349 12.60972637138148
1 45172U 13076AD  23031.15556839  .00002007  00000-0  11155-1 0  9990
2 45172  82.4726 193.6856 0097285  94.7478 266.4729 12.60980817138390
1 45172U 13076AD  23031.15556839  .00002007  00000-0  11155-1 0  9990
2 45172  82.4726 193.6856 0097285  94.7478 266.4729 12.60980817138390
